#dP2022  1 21  0  0  0.00000000      97 __u+U IGS14 FIT  IAC
## 2193 432000.00000000   900.00000000 59600 0.0000000000000
+  123   C01C02C03C04C05C06C07C08C09C10C11C12C13C14C16C19C20
+        C21C22C23C24C25C26C27C28C29C30C32C33C34C35C36C37C38
+        C39C40C41C42C43C44C45C46C59C60E01E02E03E04E05E07E08
+        E09E11E12E13E14E15E18E19E21E24E25E26E27E30E31E33E36
+        G01G02G03G04G05G06G07G08G09G10G11G12G13G14G15G16G17
+        G18G19G20G21G23G24G25G26G27G28G29G30G31G32J01J02J03
+        J07R01R02R03R04R05R07R08R09R11R12R13R14R15R17R18R19
+        R20R21R22R24  0  0  0  0  0  0  0  0  0  0  0  0  0
++        16 15 17 15 15  9  9  9  8  9  8  8  8  8  9  7  7
++         7  7  6  7  7  7  6  7  7  7  7  7  7  7  7  7  7
++         7  7  7  7  7  7  7  7 16 15  4  4  4  4  4  4  4
++         4  4  4  4  4  4  4  4  4  4  4  4  4  4  4  4  4
++         3  3  3  3  4  3  3  3  3  3  3  3  3  3  3  4  3
++         3  3  3  3  3  3  3  3  3  4  3  3  3  3  8  8  8
++        14  6  5  5  5  5  5  5  6  7  5  6  5  6  5  5  7
++         7  5  7  5  0  0  0  0  0  0  0  0  0  0  0  0  0
%c M  cc GPS ccc cccc cccc cccc cccc ccccc ccccc ccccc ccccc
%c cc cc ccc ccc cccc cccc cccc cccc ccccc ccccc ccccc ccccc
%f  1.2500000  1.025000000  0.00000000000  0.000000000000000
%f  0.0000000  0.000000000  0.00000000000  0.000000000000000
%i    0    0    0    0      0      0      0      0         0
%i    0    0    0    0      0      0      0      0         0
/* INFORMATION & ANALYSIS CENTER (IAC)            FINAL DATA
/* S/V CLOCKS ARE ALIGNED TO GNSS TIME                      
/* G:C1WC2W R:C1PC2P E:C1XC5X C:C2IC6I J:C1CC2S             
/* PCV:IGS14_2194 OL/AL:FES2004  NONE     YN ORB:CoN CLK:CoN
*  2022 01 21 22 45  0.00000000
PC01 -34307.977998  24472.739898     -3.038710   -212.288341
PC02   4390.991715  41971.467302   1187.681015    689.110214
PC03 -14786.911997  39515.809720    693.606942    632.038878
PC04 -39617.125232  14384.802967   -344.973793     51.850535
PC05  21858.500654  36059.156318   1514.544190   -507.496415
PC06  -3504.320159  37966.592447  18206.618000    -82.816666
PC07  -9470.595636  25433.992987 -32266.120416     43.076573
PC08 -18822.740258  33841.917118  16492.318632     76.957993
PC09   1244.103142  41110.991817  10671.644884   -454.905419
PC10  -1815.768246  26610.658704 -32375.768849    139.656133
PC11 -14172.545041   6057.064267 -23191.031297   -256.230523
PC12 -15962.729117 -14078.011872 -18011.773120   -434.643543
PC13 -12571.315143  34061.780924  21335.766803   -139.932764
PC14 -24645.486832   2922.198885  12831.675112    465.883462
PC16  -5063.341675  36470.348413  20899.648835     62.166166
PC19  17684.558245  -9320.635154 -19442.160644    907.042125
PC20  27144.076602   2763.724852  -5787.354290   -808.727307
PC21 -20874.450246 -13961.444112 -12170.887164   -968.440724
PC22  -2399.934886 -16506.037707 -22375.650733   -958.967515
PC23  -7082.392627  22461.005632 -14963.828836   -970.519850
PC24 -21416.776923   3844.313940  17438.134198   -944.721263
PC25 -19579.662523  19842.209092    944.645130   -791.144234
PC26 -11123.394706 -11872.653859  22659.852905    790.210162
PC27  13588.651064  21773.222841  10962.010745    665.048954
PC28   2595.759914  27043.980242  -6367.379833     23.577342
PC29   9525.348743 -16725.000034  20201.175105    504.564542
PC30  16994.069877   3931.083451  21786.016346    491.669910
PC32  20905.396559  13849.471563  12253.244082   -959.392680
PC33 -17729.381549   9404.896843  19399.206902   -954.985567
PC34 -16883.840109  -2828.145045 -22039.443539   -486.592886
PC35  -3030.339071 -26821.887705   7002.940887    103.743927
PC36  20254.038291 -19154.096773  -1395.539409   -874.495246
PC37   9974.937075  12953.771760 -22604.441907   -948.522257
PC38 -22486.841977  34291.884901   9481.976693    205.792423
PC39  -6244.132724  33781.254746  24554.312768     34.687518
PC40 -13906.386271  19191.714974 -34902.989154    237.643306
PC41   1936.336964  16494.787547  22475.756770   -926.038188
PC42 -27277.727043  -3327.350281   4941.159192   -929.209554
PC43 -10061.389595  16157.097546 -20420.133425   -946.579656
PC44 -14329.713645 -21366.897504 -10771.833032    539.275437
PC45   6950.832674 -22382.598444  15165.500111    659.956987
PC46  21802.948031  -5242.058578 -16642.032725   -126.998645
PC59 -32315.864448  27063.986981    473.950599     -0.466517
PC60   7294.359358  41529.063884   -465.486842     -0.272218
PE01 -17599.090499 -10039.869491  21571.870773   -564.013073
PE02  17773.605482   9934.614052 -21497.116987    275.131099
PE03  21565.921479  20268.899522     23.432229   -519.534681
PE04 -23606.696997  -5828.868699  16879.195293   -947.781031
PE05   6807.163328  23077.443384  17241.084429   -216.434155
PE07  11711.882137 -12411.314447 -24185.244485   -630.888790
PE08  23441.649870   5422.997292 -17240.064344   5868.251666
PE09 -11387.894959  12515.916810  24285.390862   5387.110570
PE11 -13663.008773  23067.265734 -12563.893093   4627.991559
PE12 -16832.934485   3043.520653 -24152.790237   4798.445146
PE13  13825.231168 -22627.339114  13159.412393    425.853949
PE14   3552.921705 -18713.373315  16577.629312  -1718.354337
PE15  16739.790150  -2919.376867  24249.120795    767.932619
PE18 -13630.085362  15012.349235 -23824.408610 999999.999999
PE19 -20295.008705 -21408.227005  -2402.216278    483.342137
PE21   2367.617378 -17524.318561  23736.261713   -712.603462
PE24 -22956.982175  14827.507733 -11344.288465  -1347.948866
PE25  -2624.293139  17559.872389 -23678.223668   -561.048084
PE26   2186.861700 -28780.935225  -6553.652951   -714.856993
PE27  22081.667957 -15371.759989  12362.611198   -214.764439
PE30  28532.275718  -3270.855174  -7231.970843   -210.872278
PE31 -28633.917202   4185.409672   6198.785847   -491.081214
PE33  -9769.586282 -18424.211939 -20991.243892   -460.168212
PE36  -2792.042704  28933.687693   5620.723937   -321.338939
PG01  13791.254158 -21145.713752   7382.030843    451.291452
PG02 -15690.029547   2421.035839 -20652.273226   -649.201771
PG03  18098.935977 -12847.535786 -14612.423693    -87.719601
PG04   8118.173992 -13821.007346 -21162.784901   -193.824803
PG05 -26155.542821   5072.263152    -16.430863    -68.709770
PG06  -8595.724803 -14766.996596 -20243.316015    177.752539
PG07   3861.605140 -24928.037041   7835.476128    303.909924
PG08  16039.821454  -3415.724215  20941.060233    -53.098609
PG09  -2869.710376 -21090.620933 -15938.893992   -357.143270
PG10  11682.266385  12391.417492  20594.788759   -299.578790
PG11 -16005.022698   -539.012691 -21190.776891    -66.477926
PG12 -20716.465994  10571.856729 -12959.913165   -159.311180
PG13 -18184.345267  -5628.783204  18435.283758    249.081768
PG14 -10541.755812 -13367.032783  20397.830033    -73.869256
PG15 -15643.246156   5899.562106  20294.054350    -89.772546
PG16  26645.520011    549.177789  -3218.854794   -458.923257
PG17 -12786.163838 -22952.431905   4164.232910    564.615725
PG18  -4399.252160  24906.060108   7936.784645    256.240874
PG19 -16878.317515 -20072.283348  -5034.066456    108.640257
PG20 -24406.671904    -62.650970 -10168.025055    517.064570
PG21  16178.680279 -13371.747869  16573.109057    156.588874
PG23  -1282.483523  15364.987862  21603.793049      8.850758
PG24 -14503.436337  18643.010509  11434.584644    276.983214
PG25  -8982.134639  15507.348871 -19791.599196    274.302496
PG26  21307.227379   6602.089155 -14721.941120    176.449907
PG27  19994.854679   7886.371288  15664.990343     81.377559
PG28 -17760.357320 -10648.605981  17027.531194    417.187681
PG29  -1214.576091  19484.942963 -18026.905413   -470.316342
PG30  -3242.305163 -21484.584798  15177.787674   -508.324418
PG31  10848.057122  12375.197900 -20876.413582   -161.052882
PG32  16727.330043  20765.813972    207.768105    -54.338568
PJ01 -28805.578049  19355.787893  28961.088326    284.780867
PJ02 -36086.705725  18527.320705  -6978.479726     -0.896860
PJ03 -19099.030864  28406.056622 -19911.082703     -0.237050
PJ07 -25390.621183  33662.542695     13.340294     -0.025573
PR01  -6638.166440 -13655.971195 -20500.114055      7.129781
PR02 -21610.889778 -12648.813271  -4639.976761    507.253736
PR03 -21916.335087  -3645.595036  12520.345879     50.303183
PR04  -9899.500635   6958.940015  22478.720816    124.539419
PR05   7522.998891  13908.890226  20033.284852     86.360442
PR07  21703.571414   3328.760420 -12990.481015     30.902947
PR08   9879.864265  -7088.286448 -22373.566503    -63.204932
PR09  12455.565920   4258.298257 -21822.901327     35.332387
PR11  18316.884081 -16750.662882   5868.157015     46.851647
PR12   4178.316041 -14884.737132  20317.051591    296.886122
PR13 -11465.016482  -4845.155441  22243.330365    -17.339820
PR14 -21370.513153   8869.969179  10754.014880     73.483066
PR15 -18150.575531  16678.023029  -6538.571743     98.735389
PR17 -10468.312776   1308.175199 -23209.179633    494.680187
PR18  -6156.525814  18187.631438 -16801.621895    104.629215
PR19    142.886500  25373.709897  -2603.153657   -175.278416
PR20   8186.651260  17719.954103  16461.037888    -63.477529
PR21  10238.870711  -2891.219900  23190.689979   -271.897800
PR22   5910.151906 -18739.696523  16198.927876   -159.609534
PR24  -9080.586742 -16929.061110 -16764.665200     76.711542
EOF
